IRIDIUM 126             
1 42809U 17039G   24279.46466225  .00001552  00000+0  54706-3 0  9999
2 42809  86.3931 252.5720 0002144  88.4724 271.6718 14.34218717381138
IRIDIUM 124             
1 42810U 17039H   24279.30401629  .00002880  00000+0  84952-3 0  9992
2 42810  86.4569 189.4477 0002629  90.5175 269.6327 14.43297133385706
IRIDIUM 128             
1 42811U 17039J   24279.10655830  .00000056  00000+0  12837-4 0  9993
2 42811  86.3904 284.2716 0002234  97.2899 262.8550 14.34217824381100
IRIDIUM 121             
1 42812U 17039K   24278.99530779  .00001290  00000+0  45335-3 0  9993
2 42812  86.3931 252.7918 0002222  86.1032 274.0417 14.34223848381052
IRIDIUM 133             
1 42955U 17061A   24279.06850260 -.00000021  00000+0 -14520-4 0  9991
2 42955  86.3908 284.3897 0002099  89.8759 270.2678 14.34217513365892
IRIDIUM 100             
1 42956U 17061B   24279.06215866  .00000084  00000+0  22890-4 0  9995
2 42956  86.3905 284.3255 0002258  94.7357 265.4097 14.34217992365919
IRIDIUM 122             
1 42957U 17061C   24279.10021460  .00000065  00000+0  16199-4 0  9990
2 42957  86.3905 284.3083 0002079  95.9061 264.2371 14.34218215365905
IRIDIUM 129             
1 42958U 17061D   24279.47442736  .00000320  00000+0  10704-3 0  9993
2 42958  86.3905 284.2121 0001992  87.9553 272.1871 14.34217256365972
